{
"type": "FeatureCollection",
"name": "crossingJson",
"crs": { "type": "name", "properties": { "name": "urn:ogc:def:crs:EPSG::5179" } },
"features": [
{ "type": "Feature", "properties": { "uid": "11215#61", "sig_cd": 11215, "f_node": "11215#877", "t_node": "11215#878", "length": 7.1316351219677596, "degree": 0.0, "width": 1.0, "type": 1, "ped_sig": 0 }, "geometry": { "type": "MultiLineString", "coordinates": [ [ [ 962510.439999999944121, 1949245.92 ], [ 962507.819999999948777, 1949239.29 ] ] ] } },
{ "type": "Feature", "properties": { "uid": "11215#62", "sig_cd": 11215, "f_node": "11215#140", "t_node": "11215#625", "length": 7.8484731226878397, "degree": 4.99, "width": 1.0, "type": 90, "ped_sig": 0 }, "geometry": { "type": "MultiLineString", "coordinates": [ [ [ 962450.75, 1949462.370000000111759 ], [ 962452.400000000023283, 1949470.04 ] ] ] } },
{ "type": "Feature", "properties": { "uid": "11215#63", "sig_cd": 11215, "f_node": "11215#437", "t_node": "11215#438", "length": 16.110808726913799, "degree": 4.99, "width": 1.0, "type": 1, "ped_sig": 1 }, "geometry": { "type": "MultiLineString", "coordinates": [ [ [ 962168.180000000051223, 1949256.21 ], [ 962173.67000000004191, 1949271.35 ] ] ] } },
{ "type": "Feature", "properties": { "uid": "11215#70", "sig_cd": 11215, "f_node": "11215#442", "t_node": "11215#443", "length": 16.5185257038302, "degree": 3.4643490811661399, "width": 1.0, "type": 1, "ped_sig": 0 }, "geometry": { "type": "MultiLineString", "coordinates": [ [ [ 962292.67000000004191, 1949157.73 ], [ 962308.459999999962747, 1949152.9 ] ] ] } },
{ "type": "Feature", "properties": { "uid": "11215#28", "sig_cd": 11215, "f_node": "11215#49", "t_node": "11215#131", "length": 7.9846931618393597, "degree": 0.0, "width": 1.0, "type": 90, "ped_sig": 0 }, "geometry": { "type": "MultiLineString", "coordinates": [ [ [ 962899.32999999995809, 1949151.26 ], [ 962898.339999999967404, 1949143.34 ] ] ] } },
{ "type": "Feature", "properties": { "uid": "11215#29", "sig_cd": 11215, "f_node": "11215#98", "t_node": "11215#177", "length": 6.9524383054164298, "degree": 4.99, "width": 1.0, "type": 1, "ped_sig": 0 }, "geometry": { "type": "MultiLineString", "coordinates": [ [ [ 962627.900000000023283, 1949465.1 ], [ 962634.770000000018626, 1949464.05 ] ] ] } },
{ "type": "Feature", "properties": { "uid": "11215#0", "sig_cd": 11215, "f_node": "11215#22", "t_node": "11215#113", "length": 16.627333684737199, "degree": 3.4417333244495101, "width": 1.0, "type": 1, "ped_sig": 0 }, "geometry": { "type": "MultiLineString", "coordinates": [ [ [ 962260.96999999997206, 1949201.44 ], [ 962245.189999999944121, 1949196.22 ] ] ] } },
{ "type": "Feature", "properties": { "uid": "11215#1", "sig_cd": 11215, "f_node": "11215#76", "t_node": "11215#151", "length": 9.1216598424287199, "degree": 0.0, "width": 1.0, "type": 1, "ped_sig": 0 }, "geometry": { "type": "MultiLineString", "coordinates": [ [ [ 963216.300000000046566, 1949196.75 ], [ 963219.32999999995809, 1949205.35 ] ] ] } },
{ "type": "Feature", "properties": { "uid": "11215#24", "sig_cd": 11215, "f_node": "11215#51", "t_node": "11215#112", "length": 6.8903126571788302, "degree": 4.99, "width": 1.0, "type": 1, "ped_sig": 0 }, "geometry": { "type": "MultiLineString", "coordinates": [ [ [ 962266.01, 1949203.5 ], [ 962272.0, 1949206.9 ] ] ] } },
{ "type": "Feature", "properties": { "uid": "11215#2", "sig_cd": 11215, "f_node": "11215#46", "t_node": "11215#126", "length": 11.667593304375901, "degree": 4.8987052623806902, "width": 1.0, "type": 1, "ped_sig": 0 }, "geometry": { "type": "MultiLineString", "coordinates": [ [ [ 962756.540000000037253, 1949244.129999999888241 ], [ 962768.12, 1949242.74 ] ] ] } },
{ "type": "Feature", "properties": { "uid": "11215#3", "sig_cd": 11215, "f_node": "11215#155", "t_node": "11215#166", "length": 6.6196218667787097, "degree": 0.0, "width": 1.0, "type": 1, "ped_sig": 0 }, "geometry": { "type": "MultiLineString", "coordinates": [ [ [ 963287.46999999997206, 1949603.25 ], [ 963293.699999999953434, 1949601.02 ] ] ] } },
{ "type": "Feature", "properties": { "uid": "11215#25", "sig_cd": 11215, "f_node": "11215#111", "t_node": "11215#462", "length": 13.940628248873701, "degree": 4.1241613115929701, "width": 1.0, "type": 1, "ped_sig": 0 }, "geometry": { "type": "MultiLineString", "coordinates": [ [ [ 962235.290000000037253, 1949105.72 ], [ 962247.910000000032596, 1949099.81 ] ] ] } },
{ "type": "Feature", "properties": { "uid": "11215#26", "sig_cd": 11215, "f_node": "11215#10", "t_node": "11215#153", "length": 17.096018769122999, "degree": 0.0, "width": 1.0, "type": 1, "ped_sig": 0 }, "geometry": { "type": "MultiLineString", "coordinates": [ [ [ 963264.550000000046566, 1949348.639999999897555 ], [ 963259.020000000018626, 1949332.47 ] ] ] } },
{ "type": "Feature", "properties": { "uid": "11215#27", "sig_cd": 11215, "f_node": "11215#110", "t_node": "11215#476", "length": 12.1360057971931, "degree": 0.0, "width": 1.0, "type": 1, "ped_sig": 0 }, "geometry": { "type": "MultiLineString", "coordinates": [ [ [ 962258.92000000004191, 1949081.2 ], [ 962264.819999999948777, 1949091.8 ] ] ] } },
{ "type": "Feature", "properties": { "uid": "11215#20", "sig_cd": 11215, "f_node": "11215#501", "t_node": "11215#502", "length": 14.2735167457181, "degree": 4.99, "width": 1.0, "type": 1, "ped_sig": 0 }, "geometry": { "type": "MultiLineString", "coordinates": [ [ [ 962715.800000000046566, 1949304.6 ], [ 962717.78000000002794, 1949318.73 ] ] ] } },
{ "type": "Feature", "properties": { "uid": "11215#57", "sig_cd": 11215, "f_node": "11215#128", "t_node": "11215#189", "length": 13.2508890228575, "degree": 0.0, "width": 1.0, "type": 1, "ped_sig": 0 }, "geometry": { "type": "MultiLineString", "coordinates": [ [ [ 962811.400000000023283, 1949153.68 ], [ 962824.5, 1949151.72 ] ] ] } },
{ "type": "Feature", "properties": { "uid": "11215#21", "sig_cd": 11215, "f_node": "11215#156", "t_node": "11215#428", "length": 11.566132215098399, "degree": 0.0, "width": 1.0, "type": 1, "ped_sig": 0 }, "geometry": { "type": "MultiLineString", "coordinates": [ [ [ 963108.349999999976717, 1949617.09 ], [ 963119.900000000023283, 1949616.57 ] ] ] } },
{ "type": "Feature", "properties": { "uid": "11215#58", "sig_cd": 11215, "f_node": "11215#495", "t_node": "11215#573", "length": 17.0105362393974, "degree": 4.99, "width": 1.0, "type": 1, "ped_sig": 0 }, "geometry": { "type": "MultiLineString", "coordinates": [ [ [ 962541.14000000001397, 1949325.58 ], [ 962548.020000000018626, 1949341.129999999888241 ] ] ] } },
{ "type": "Feature", "properties": { "uid": "11215#22", "sig_cd": 11215, "f_node": "11215#48", "t_node": "11215#129", "length": 10.2107417082845, "degree": 4.99, "width": 1.0, "type": 1, "ped_sig": 0 }, "geometry": { "type": "MultiLineString", "coordinates": [ [ [ 962844.319999999948777, 1949159.55 ], [ 962843.069999999948777, 1949149.42 ] ] ] } },
{ "type": "Feature", "properties": { "uid": "11215#59", "sig_cd": 11215, "f_node": "11215#54", "t_node": "11215#154", "length": 6.5960486284020297, "degree": 0.0, "width": 1.0, "type": 1, "ped_sig": 0 }, "geometry": { "type": "MultiLineString", "coordinates": [ [ [ 963314.99, 1949487.46 ], [ 963317.03000000002794, 1949493.73 ] ] ] } },
{ "type": "Feature", "properties": { "uid": "11215#23", "sig_cd": 11215, "f_node": "11215#13", "t_node": "11215#146", "length": 11.1240197780283, "degree": 0.0, "width": 1.0, "type": 1, "ped_sig": 0 }, "geometry": { "type": "MultiLineString", "coordinates": [ [ [ 963057.849999999976717, 1948724.27 ], [ 963067.520000000018626, 1948718.78 ] ] ] } },
{ "type": "Feature", "properties": { "uid": "11215#53", "sig_cd": 11215, "f_node": "11215#115", "t_node": "11215#441", "length": 15.996517845165499, "degree": 3.5771108576313599, "width": 1.0, "type": 1, "ped_sig": 0 }, "geometry": { "type": "MultiLineString", "coordinates": [ [ [ 962251.96999999997206, 1949167.19 ], [ 962236.62, 1949171.67 ] ] ] } },
{ "type": "Feature", "properties": { "uid": "11215#54", "sig_cd": 11215, "f_node": "11215#395", "t_node": "11215#396", "length": 26.658641271134002, "degree": 4.99, "width": 1.0, "type": 1, "ped_sig": 0 }, "geometry": { "type": "MultiLineString", "coordinates": [ [ [ 963136.020000000018626, 1948786.05 ], [ 963162.660000000032596, 1948786.72 ] ] ] } },
{ "type": "Feature", "properties": { "uid": "11215#55", "sig_cd": 11215, "f_node": "11215#170", "t_node": "11215#441", "length": 8.3682824890017198, "degree": 0.0, "width": 1.0, "type": 1, "ped_sig": 0 }, "geometry": { "type": "MultiLineString", "coordinates": [ [ [ 962236.62, 1949171.67 ], [ 962233.729999999981374, 1949163.82 ] ] ] } },
{ "type": "Feature", "properties": { "uid": "11215#56", "sig_cd": 11215, "f_node": "11215#162", "t_node": "11215#432", "length": 8.2718589461573195, "degree": 0.0, "width": 1.0, "type": 1, "ped_sig": 0 }, "geometry": { "type": "MultiLineString", "coordinates": [ [ [ 962438.660000000032596, 1949818.76 ], [ 962444.99, 1949813.44 ] ] ] } },
{ "type": "Feature", "properties": { "uid": "11215#50", "sig_cd": 11215, "f_node": "11215#7", "t_node": "11215#160", "length": 10.5781889797221, "degree": 4.99, "width": 1.0, "type": 1, "ped_sig": 0 }, "geometry": { "type": "MultiLineString", "coordinates": [ [ [ 962288.949999999953434, 1949587.19 ], [ 962293.089999999967404, 1949596.92 ] ] ] } },
{ "type": "Feature", "properties": { "uid": "11215#51", "sig_cd": 11215, "f_node": "11215#14", "t_node": "11215#144", "length": 11.1359555858237, "degree": 4.99, "width": 1.0, "type": 1, "ped_sig": 0 }, "geometry": { "type": "MultiLineString", "coordinates": [ [ [ 963002.76, 1948739.41 ], [ 963013.88, 1948738.9 ] ] ] } },
{ "type": "Feature", "properties": { "uid": "11215#52", "sig_cd": 11215, "f_node": "11215#120", "t_node": "11215#171", "length": 12.302806162775701, "degree": 4.99, "width": 1.0, "type": 1, "ped_sig": 0 }, "geometry": { "type": "MultiLineString", "coordinates": [ [ [ 962210.550000000046566, 1949100.54 ], [ 962222.21999999997206, 1949096.66 ] ] ] } },
{ "type": "Feature", "properties": { "uid": "11215#17", "sig_cd": 11215, "f_node": "11215#94", "t_node": "11215#719", "length": 4.9318377655498598, "degree": 0.0, "width": 1.0, "type": 1, "ped_sig": 0 }, "geometry": { "type": "MultiLineString", "coordinates": [ [ [ 962765.050000000046566, 1949475.82 ], [ 962769.930000000051223, 1949476.52 ] ] ] } },
{ "type": "Feature", "properties": { "uid": "11215#18", "sig_cd": 11215, "f_node": "11215#37", "t_node": "11215#630", "length": 7.9135858687612401, "degree": 0.0, "width": 1.0, "type": 90, "ped_sig": 0 }, "geometry": { "type": "MultiLineString", "coordinates": [ [ [ 962718.87, 1949474.03 ], [ 962719.67000000004191, 1949481.9 ] ] ] } },
{ "type": "Feature", "properties": { "uid": "11215#19", "sig_cd": 11215, "f_node": "11215#117", "t_node": "11215#315", "length": 10.494089434487901, "degree": 0.0, "width": 1.0, "type": 1, "ped_sig": 0 }, "geometry": { "type": "MultiLineString", "coordinates": [ [ [ 962227.150000000023283, 1949146.5 ], [ 962237.060000000055879, 1949143.06 ] ] ] } },
{ "type": "Feature", "properties": { "uid": "11215#13", "sig_cd": 11215, "f_node": "11215#11", "t_node": "11215#398", "length": 13.8492457114708, "degree": 0.0, "width": 1.0, "type": 1, "ped_sig": 0 }, "geometry": { "type": "MultiLineString", "coordinates": [ [ [ 963179.10999999998603, 1948851.57 ], [ 963177.5, 1948865.32 ] ] ] } },
{ "type": "Feature", "properties": { "uid": "11215#14", "sig_cd": 11215, "f_node": "11215#159", "t_node": "11215#163", "length": 11.894619008905501, "degree": 0.0, "width": 1.0, "type": 1, "ped_sig": 0 }, "geometry": { "type": "MultiLineString", "coordinates": [ [ [ 962495.57999999995809, 1949783.68 ], [ 962507.42000000004191, 1949782.59 ] ] ] } },
{ "type": "Feature", "properties": { "uid": "11215#15", "sig_cd": 11215, "f_node": "11215#138", "t_node": "11215#175", "length": 9.9567043029624998, "degree": 4.99, "width": 1.0, "type": 1, "ped_sig": 0 }, "geometry": { "type": "MultiLineString", "coordinates": [ [ [ 962508.449999999953434, 1949463.41 ], [ 962518.400000000023283, 1949463.17 ] ] ] } },
{ "type": "Feature", "properties": { "uid": "11215#16", "sig_cd": 11215, "f_node": "11215#97", "t_node": "11215#176", "length": 6.9669186445450304, "degree": 4.99, "width": 1.0, "type": 1, "ped_sig": 0 }, "geometry": { "type": "MultiLineString", "coordinates": [ [ [ 962658.24, 1949461.47 ], [ 962665.12, 1949460.389999999897555 ] ] ] } },
{ "type": "Feature", "properties": { "uid": "11215#10", "sig_cd": 11215, "f_node": "11215#476", "t_node": "11215#477", "length": 19.136605457386999, "degree": 2.9913201088884098, "width": 1.0, "type": 1, "ped_sig": 0 }, "geometry": { "type": "MultiLineString", "coordinates": [ [ [ 962264.819999999948777, 1949091.8 ], [ 962282.459999999962747, 1949084.4 ] ] ] } },
{ "type": "Feature", "properties": { "uid": "11215#11", "sig_cd": 11215, "f_node": "11215#145", "t_node": "11215#316", "length": 10.244335842596501, "degree": 4.99, "width": 1.0, "type": 1, "ped_sig": 0 }, "geometry": { "type": "MultiLineString", "coordinates": [ [ [ 963077.339999999967404, 1948792.379999999888241 ], [ 963085.21999999997206, 1948798.92 ] ] ] } },
{ "type": "Feature", "properties": { "uid": "11215#12", "sig_cd": 11215, "f_node": "11215#496", "t_node": "11215#497", "length": 12.070758298073301, "degree": 0.0, "width": 1.0, "type": 1, "ped_sig": 0 }, "geometry": { "type": "MultiLineString", "coordinates": [ [ [ 962548.25, 1949297.91 ], [ 962559.189999999944121, 1949292.82 ] ] ] } },
{ "type": "Feature", "properties": { "uid": "11215#46", "sig_cd": 11215, "f_node": "11215#114", "t_node": "11215#197", "length": 9.9682340823798992, "degree": 0.0, "width": 1.0, "type": 1, "ped_sig": 0 }, "geometry": { "type": "MultiLineString", "coordinates": [ [ [ 962268.96999999997206, 1949168.32 ], [ 962259.53000000002794, 1949165.129999999888241 ] ] ] } },
{ "type": "Feature", "properties": { "uid": "11215#47", "sig_cd": 11215, "f_node": "11215#180", "t_node": "11215#719", "length": 8.8333767711161908, "degree": 0.0, "width": 1.0, "type": 1, "ped_sig": 0 }, "geometry": { "type": "MultiLineString", "coordinates": [ [ [ 962769.930000000051223, 1949476.52 ], [ 962769.51, 1949485.34 ] ] ] } },
{ "type": "Feature", "properties": { "uid": "11215#86", "sig_cd": 11215, "f_node": "11215#134", "t_node": "11215#186", "length": 7.87694829018172, "degree": 0.0, "width": 1.0, "type": 90, "ped_sig": 0 }, "geometry": { "type": "MultiLineString", "coordinates": [ [ [ 962820.060000000055879, 1949298.18 ], [ 962827.88, 1949297.26 ] ] ] } },
{ "type": "Feature", "properties": { "uid": "11215#48", "sig_cd": 11215, "f_node": "11215#45", "t_node": "11215#125", "length": 10.750208732426501, "degree": 4.99, "width": 1.0, "type": 1, "ped_sig": 0 }, "geometry": { "type": "MultiLineString", "coordinates": [ [ [ 962761.650000000023283, 1949289.79 ], [ 962772.32999999995809, 1949288.6 ] ] ] } },
{ "type": "Feature", "properties": { "uid": "11215#87", "sig_cd": 11215, "f_node": "11215#652", "t_node": "11215#653", "length": 8.1095003820760603, "degree": 4.99, "width": 1.0, "type": 1, "ped_sig": 0 }, "geometry": { "type": "MultiLineString", "coordinates": [ [ [ 962281.60999999998603, 1949348.360000000102445 ], [ 962278.900000000023283, 1949340.72 ] ] ] } },
{ "type": "Feature", "properties": { "uid": "11215#49", "sig_cd": 11215, "f_node": "11215#34", "t_node": "11215#96", "length": 9.2763607183469308, "degree": 4.99, "width": 1.0, "type": 1, "ped_sig": 0 }, "geometry": { "type": "MultiLineString", "coordinates": [ [ [ 962653.800000000046566, 1949471.379999999888241 ], [ 962653.150000000023283, 1949462.129999999888241 ] ] ] } },
{ "type": "Feature", "properties": { "uid": "11215#88", "sig_cd": 11215, "f_node": "11215#574", "t_node": "11215#672", "length": 15.148143263651001, "degree": 4.99, "width": 1.0, "type": 1, "ped_sig": 0 }, "geometry": { "type": "MultiLineString", "coordinates": [ [ [ 962481.71999999997206, 1949373.6 ], [ 962496.650000000023283, 1949371.05 ] ] ] } },
{ "type": "Feature", "properties": { "uid": "11215#42", "sig_cd": 11215, "f_node": "11215#118", "t_node": "11215#119", "length": 8.5194834677379401, "degree": 4.99, "width": 1.0, "type": 1, "ped_sig": 0 }, "geometry": { "type": "MultiLineString", "coordinates": [ [ [ 962195.07999999995809, 1949246.7 ], [ 962203.14000000001397, 1949243.95 ] ] ] } },
{ "type": "Feature", "properties": { "uid": "11215#89", "sig_cd": 11215, "f_node": "11215#32", "t_node": "11215#100", "length": 12.294710153053201, "degree": 4.6499617311889798, "width": 1.0, "type": 1, "ped_sig": 0 }, "geometry": { "type": "MultiLineString", "coordinates": [ [ [ 962606.180000000051223, 1949459.74 ], [ 962618.46999999997206, 1949459.75 ] ] ] } },
{ "type": "Feature", "properties": { "uid": "11215#43", "sig_cd": 11215, "f_node": "11215#58", "t_node": "11215#150", "length": 9.3208794278470695, "degree": 0.0, "width": 1.0, "type": 1, "ped_sig": 0 }, "geometry": { "type": "MultiLineString", "coordinates": [ [ [ 963208.599999999976717, 1949174.44 ], [ 963211.689999999944121, 1949183.23 ] ] ] } },
{ "type": "Feature", "properties": { "uid": "11215#82", "sig_cd": 11215, "f_node": "11215#36", "t_node": "11215#99", "length": 9.6053641544182309, "degree": 0.0, "width": 1.0, "type": 1, "ped_sig": 0 }, "geometry": { "type": "MultiLineString", "coordinates": [ [ [ 962619.310000000055879, 1949465.96 ], [ 962619.13, 1949475.56 ] ] ] } },
{ "type": "Feature", "properties": { "uid": "11215#44", "sig_cd": 11215, "f_node": "11215#157", "t_node": "11215#165", "length": 18.415717703772899, "degree": 0.0, "width": 1.0, "type": 1, "ped_sig": 0 }, "geometry": { "type": "MultiLineString", "coordinates": [ [ [ 962895.53000000002794, 1949632.77 ], [ 962913.85999999998603, 1949631.07 ] ] ] } },
{ "type": "Feature", "properties": { "uid": "11215#83", "sig_cd": 11215, "f_node": "11215#8", "t_node": "11215#158", "length": 28.632924104716398, "degree": 0.0, "width": 1.0, "type": 1, "ped_sig": 0 }, "geometry": { "type": "MultiLineString", "coordinates": [ [ [ 962578.24, 1949738.879999999888241 ], [ 962553.790000000037253, 1949753.76 ] ] ] } },
{ "type": "Feature", "properties": { "uid": "11215#45", "sig_cd": 11215, "f_node": "11215#47", "t_node": "11215#127", "length": 12.380491066648201, "degree": 4.99, "width": 1.0, "type": 1, "ped_sig": 0 }, "geometry": { "type": "MultiLineString", "coordinates": [ [ [ 962752.39000000001397, 1949212.08 ], [ 962764.729999999981374, 1949211.139999999897555 ] ] ] } },
{ "type": "Feature", "properties": { "uid": "11215#84", "sig_cd": 11215, "f_node": "11215#25", "t_node": "11215#109", "length": 16.2676504549651, "degree": 0.0, "width": 1.0, "type": 1, "ped_sig": 0 }, "geometry": { "type": "MultiLineString", "coordinates": [ [ [ 962409.599999999976717, 1949036.03 ], [ 962395.42000000004191, 1949043.99 ] ] ] } },
{ "type": "Feature", "properties": { "uid": "11215#85", "sig_cd": 11215, "f_node": "11215#82", "t_node": "11215#149", "length": 13.713739445762, "degree": 0.0, "width": 1.0, "type": 1, "ped_sig": 0 }, "geometry": { "type": "MultiLineString", "coordinates": [ [ [ 963192.96999999997206, 1949126.78 ], [ 963197.319999999948777, 1949139.78 ] ] ] } },
{ "type": "Feature", "properties": { "uid": "11215#40", "sig_cd": 11215, "f_node": "11215#44", "t_node": "11215#136", "length": 12.7602843563576, "degree": 4.2667080239735, "width": 1.0, "type": 1, "ped_sig": 0 }, "geometry": { "type": "MultiLineString", "coordinates": [ [ [ 962708.71999999997206, 1949393.95 ], [ 962721.410000000032596, 1949392.66 ] ] ] } },
{ "type": "Feature", "properties": { "uid": "11215#90", "sig_cd": 11215, "f_node": "11215#103", "t_node": "11215#104", "length": 12.7370752594293, "degree": 0.0, "width": 1.0, "type": 1, "ped_sig": 0 }, "geometry": { "type": "MultiLineString", "coordinates": [ [ [ 962646.689999999944121, 1949327.120000000111759 ], [ 962644.85999999998603, 1949314.52 ] ] ] } },
{ "type": "Feature", "properties": { "uid": "11215#41", "sig_cd": 11215, "f_node": "11215#56", "t_node": "11215#148", "length": 10.919587372419, "degree": 0.0, "width": 1.0, "type": 1, "ped_sig": 0 }, "geometry": { "type": "MultiLineString", "coordinates": [ [ [ 963172.400000000023283, 1948947.53 ], [ 963170.959999999962747, 1948958.35 ] ] ] } },
{ "type": "Feature", "properties": { "uid": "11215#91", "sig_cd": 11215, "f_node": "11215#18", "t_node": "11215#124", "length": 5.0640515093715903, "degree": 0.0, "width": 1.0, "type": 1, "ped_sig": 0 }, "geometry": { "type": "MultiLineString", "coordinates": [ [ [ 962396.410000000032596, 1948995.03 ], [ 962396.76, 1949000.08 ] ] ] } },
{ "type": "Feature", "properties": { "uid": "11215#92", "sig_cd": 11215, "f_node": "11215#511", "t_node": "11215#512", "length": 6.1062721489574603, "degree": 4.99, "width": 1.0, "type": 1, "ped_sig": 0 }, "geometry": { "type": "MultiLineString", "coordinates": [ [ [ 962907.96999999997206, 1949156.129999999888241 ], [ 962914.050000000046566, 1949155.59 ] ] ] } },
{ "type": "Feature", "properties": { "uid": "11215#39", "sig_cd": 11215, "f_node": "11215#356", "t_node": "11215#357", "length": 11.8103201018804, "degree": 4.99, "width": 1.0, "type": 1, "ped_sig": 0 }, "geometry": { "type": "MultiLineString", "coordinates": [ [ [ 962607.160000000032596, 1949523.45 ], [ 962618.959999999962747, 1949523.08 ] ] ] } },
{ "type": "Feature", "properties": { "uid": "11215#79", "sig_cd": 11215, "f_node": "11215#409", "t_node": "11215#410", "length": 9.3390013403002197, "degree": 0.0, "width": 1.0, "type": 1, "ped_sig": 0 }, "geometry": { "type": "MultiLineString", "coordinates": [ [ [ 963167.589999999967404, 1948999.22 ], [ 963168.849999999976717, 1949008.47 ] ] ] } },
{ "type": "Feature", "properties": { "uid": "11215#35", "sig_cd": 11215, "f_node": "11215#31", "t_node": "11215#499", "length": 16.900671975775001, "degree": 4.99, "width": 1.0, "type": 1, "ped_sig": 0 }, "geometry": { "type": "MultiLineString", "coordinates": [ [ [ 962582.319999999948777, 1949335.09 ], [ 962594.10999999998603, 1949322.99 ] ] ] } },
{ "type": "Feature", "properties": { "uid": "11215#36", "sig_cd": 11215, "f_node": "11215#19", "t_node": "11215#121", "length": 22.2231447477246, "degree": 0.0, "width": 1.0, "type": 1, "ped_sig": 0 }, "geometry": { "type": "MultiLineString", "coordinates": [ [ [ 962224.01, 1949000.43 ], [ 962244.53000000002794, 1948991.92 ] ] ] } },
{ "type": "Feature", "properties": { "uid": "11215#75", "sig_cd": 11215, "f_node": "11215#141", "t_node": "11215#174", "length": 7.0052226943424802, "degree": 0.0, "width": 1.0, "type": 1, "ped_sig": 0 }, "geometry": { "type": "MultiLineString", "coordinates": [ [ [ 962436.25, 1949481.01 ], [ 962443.089999999967404, 1949479.51 ] ] ] } },
{ "type": "Feature", "properties": { "uid": "11215#37", "sig_cd": 11215, "f_node": "11215#104", "t_node": "11215#502", "length": 71.657664171148795, "degree": 0.79952453352963004, "width": 1.0, "type": 1, "ped_sig": 0 }, "geometry": { "type": "MultiLineString", "coordinates": [ [ [ 962644.85999999998603, 1949314.52 ], [ 962715.800000000046566, 1949304.6 ] ] ] } },
{ "type": "Feature", "properties": { "uid": "11215#76", "sig_cd": 11215, "f_node": "11215#169", "t_node": "11215#475", "length": 10.3699206204798, "degree": 4.99, "width": 1.0, "type": 1, "ped_sig": 0 }, "geometry": { "type": "MultiLineString", "coordinates": [ [ [ 962345.74, 1949046.4 ], [ 962335.910000000032596, 1949049.69 ] ] ] } },
{ "type": "Feature", "properties": { "uid": "11215#38", "sig_cd": 11215, "f_node": "11215#16", "t_node": "11215#142", "length": 9.2789657607795402, "degree": 0.0, "width": 1.0, "type": 1, "ped_sig": 0 }, "geometry": { "type": "MultiLineString", "coordinates": [ [ [ 962640.199999999953434, 1948854.44 ], [ 962648.96999999997206, 1948851.42 ] ] ] } },
{ "type": "Feature", "properties": { "uid": "11215#77", "sig_cd": 11215, "f_node": "11215#123", "t_node": "11215#168", "length": 15.2390830962288, "degree": 0.0, "width": 1.0, "type": 1, "ped_sig": 0 }, "geometry": { "type": "MultiLineString", "coordinates": [ [ [ 962379.949999999953434, 1948993.6 ], [ 962382.49, 1949008.620000000111759 ] ] ] } },
{ "type": "Feature", "properties": { "uid": "11215#31", "sig_cd": 11215, "f_node": "11215#841", "t_node": "11215#842", "length": 10.7374691180976, "degree": 0.0, "width": 1.0, "type": 1, "ped_sig": 0 }, "geometry": { "type": "MultiLineString", "coordinates": [ [ [ 962592.89000000001397, 1949452.08 ], [ 962590.439999999944121, 1949441.629999999888241 ] ] ] } },
{ "type": "Feature", "properties": { "uid": "11215#78", "sig_cd": 11215, "f_node": "11215#132", "t_node": "11215#188", "length": 9.4290346475600302, "degree": 0.0, "width": 1.0, "type": 90, "ped_sig": 0 }, "geometry": { "type": "MultiLineString", "coordinates": [ [ [ 962884.87, 1949290.67 ], [ 962894.21999999997206, 1949289.48 ] ] ] } },
{ "type": "Feature", "properties": { "uid": "11215#32", "sig_cd": 11215, "f_node": "11215#30", "t_node": "11215#106", "length": 12.7343823799823, "degree": 0.0, "width": 1.0, "type": 1, "ped_sig": 0 }, "geometry": { "type": "MultiLineString", "coordinates": [ [ [ 962518.0, 1949228.85 ], [ 962529.900000000023283, 1949224.33 ] ] ] } },
{ "type": "Feature", "properties": { "uid": "11215#71", "sig_cd": 11215, "f_node": "11215#33", "t_node": "11215#102", "length": 10.4741286139765, "degree": 4.99, "width": 1.0, "type": 1, "ped_sig": 0 }, "geometry": { "type": "MultiLineString", "coordinates": [ [ [ 962608.069999999948777, 1949416.66 ], [ 962618.540000000037253, 1949416.71 ] ] ] } },
{ "type": "Feature", "properties": { "uid": "11215#33", "sig_cd": 11215, "f_node": "11215#130", "t_node": "11215#190", "length": 11.3402908499954, "degree": 4.99, "width": 1.0, "type": 1, "ped_sig": 0 }, "geometry": { "type": "MultiLineString", "coordinates": [ [ [ 962879.82999999995809, 1949145.51 ], [ 962891.089999999967404, 1949144.2 ] ] ] } },
{ "type": "Feature", "properties": { "uid": "11215#72", "sig_cd": 11215, "f_node": "11215#133", "t_node": "11215#187", "length": 8.2370602377603994, "degree": 0.0, "width": 1.0, "type": 1, "ped_sig": 0 }, "geometry": { "type": "MultiLineString", "coordinates": [ [ [ 962846.069999999948777, 1949295.09 ], [ 962854.209999999962747, 1949293.85 ] ] ] } },
{ "type": "Feature", "properties": { "uid": "11215#34", "sig_cd": 11215, "f_node": "11215#314", "t_node": "11215#575", "length": 12.017382143096899, "degree": 4.99, "width": 1.0, "type": 1, "ped_sig": 0 }, "geometry": { "type": "MultiLineString", "coordinates": [ [ [ 962496.28000000002794, 1949359.129999999888241 ], [ 962485.5, 1949353.84 ] ] ] } },
{ "type": "Feature", "properties": { "uid": "11215#73", "sig_cd": 11215, "f_node": "11215#477", "t_node": "11215#478", "length": 12.128701763309801, "degree": 0.0, "width": 1.0, "type": 1, "ped_sig": 0 }, "geometry": { "type": "MultiLineString", "coordinates": [ [ [ 962282.459999999962747, 1949084.4 ], [ 962277.939999999944121, 1949073.15 ] ] ] } },
{ "type": "Feature", "properties": { "uid": "11215#74", "sig_cd": 11215, "f_node": "11215#38", "t_node": "11215#888", "length": 7.9076149509552698, "degree": 0.0, "width": 1.0, "type": 1, "ped_sig": 0 }, "geometry": { "type": "MultiLineString", "coordinates": [ [ [ 962734.589999999967404, 1949472.41 ], [ 962735.069999999948777, 1949480.3 ] ] ] } },
{ "type": "Feature", "properties": { "uid": "11215#30", "sig_cd": 11215, "f_node": "11215#107", "t_node": "11215#172", "length": 12.554038507374999, "degree": 0.0, "width": 1.0, "type": 1, "ped_sig": 0 }, "geometry": { "type": "MultiLineString", "coordinates": [ [ [ 962442.53000000002794, 1949109.96 ], [ 962453.800000000046566, 1949115.48 ] ] ] } },
{ "type": "Feature", "properties": { "uid": "11215#80", "sig_cd": 11215, "f_node": "11215#184", "t_node": "11215#561", "length": 6.2052865148393197, "degree": 0.0, "width": 1.0, "type": 1, "ped_sig": 0 }, "geometry": { "type": "MultiLineString", "coordinates": [ [ [ 962726.569999999948777, 1949398.5 ], [ 962726.38, 1949392.3 ] ] ] } },
{ "type": "Feature", "properties": { "uid": "11215#81", "sig_cd": 11215, "f_node": "11215#116", "t_node": "11215#117", "length": 8.9219993386427507, "degree": 0.0, "width": 1.0, "type": 1, "ped_sig": 0 }, "geometry": { "type": "MultiLineString", "coordinates": [ [ [ 962230.310000000055879, 1949154.84 ], [ 962227.150000000023283, 1949146.5 ] ] ] } },
{ "type": "Feature", "properties": { "uid": "11215#8", "sig_cd": 11215, "f_node": "11215#135", "t_node": "11215#738", "length": 5.79106939785874, "degree": 0.0, "width": 1.0, "type": 1, "ped_sig": 0 }, "geometry": { "type": "MultiLineString", "coordinates": [ [ [ 962873.680000000051223, 1949291.73 ], [ 962874.0, 1949297.51 ] ] ] } },
{ "type": "Feature", "properties": { "uid": "11215#9", "sig_cd": 11215, "f_node": "11215#17", "t_node": "11215#272", "length": 11.546189985646301, "degree": 4.99, "width": 1.0, "type": 1, "ped_sig": 0 }, "geometry": { "type": "MultiLineString", "coordinates": [ [ [ 962459.910000000032596, 1948912.44 ], [ 962470.099999999976717, 1948907.02 ] ] ] } },
{ "type": "Feature", "properties": { "uid": "11215#4", "sig_cd": 11215, "f_node": "11215#474", "t_node": "11215#475", "length": 10.982324841498199, "degree": 0.0, "width": 1.0, "type": 90, "ped_sig": 0 }, "geometry": { "type": "MultiLineString", "coordinates": [ [ [ 962350.400000000023283, 1949056.34 ], [ 962345.74, 1949046.4 ] ] ] } },
{ "type": "Feature", "properties": { "uid": "11215#5", "sig_cd": 11215, "f_node": "11215#96", "t_node": "11215#178", "length": 9.7716729803767599, "degree": 0.0, "width": 1.0, "type": 1, "ped_sig": 0 }, "geometry": { "type": "MultiLineString", "coordinates": [ [ [ 962653.800000000046566, 1949471.379999999888241 ], [ 962663.5, 1949470.23 ] ] ] } },
{ "type": "Feature", "properties": { "uid": "11215#6", "sig_cd": 11215, "f_node": "11215#139", "t_node": "11215#173", "length": 10.1941365957908, "degree": 0.0, "width": 1.0, "type": 1, "ped_sig": 0 }, "geometry": { "type": "MultiLineString", "coordinates": [ [ [ 962500.38, 1949462.860000000102445 ], [ 962498.57999999995809, 1949452.83 ] ] ] } },
{ "type": "Feature", "properties": { "uid": "11215#7", "sig_cd": 11215, "f_node": "11215#12", "t_node": "11215#147", "length": 11.725330494973999, "degree": 0.0, "width": 1.0, "type": 1, "ped_sig": 0 }, "geometry": { "type": "MultiLineString", "coordinates": [ [ [ 963182.349999999976717, 1948799.620000000111759 ], [ 963182.49, 1948787.9 ] ] ] } },
{ "type": "Feature", "properties": { "uid": "11215#68", "sig_cd": 11215, "f_node": "11215#122", "t_node": "11215#359", "length": 17.270039366020299, "degree": 3.1026688433685399, "width": 1.0, "type": 1, "ped_sig": 0 }, "geometry": { "type": "MultiLineString", "coordinates": [ [ [ 962377.209999999962747, 1948944.43 ], [ 962392.150000000023283, 1948935.78 ] ] ] } },
{ "type": "Feature", "properties": { "uid": "11215#69", "sig_cd": 11215, "f_node": "11215#24", "t_node": "11215#108", "length": 13.658921018988, "degree": 4.1969538669032502, "width": 1.0, "type": 1, "ped_sig": 0 }, "geometry": { "type": "MultiLineString", "coordinates": [ [ [ 962385.589999999967404, 1949029.68 ], [ 962391.62, 1949041.93 ] ] ] } },
{ "type": "Feature", "properties": { "uid": "11215#64", "sig_cd": 11215, "f_node": "11215#21", "t_node": "11215#118", "length": 14.735665539421101, "degree": 3.8822858954709498, "width": 1.0, "type": 1, "ped_sig": 0 }, "geometry": { "type": "MultiLineString", "coordinates": [ [ [ 962203.14000000001397, 1949243.95 ], [ 962208.209999999962747, 1949257.78 ] ] ] } },
{ "type": "Feature", "properties": { "uid": "11215#65", "sig_cd": 11215, "f_node": "11215#67", "t_node": "11215#152", "length": 7.6223183897310998, "degree": 0.0, "width": 1.0, "type": 1, "ped_sig": 0 }, "geometry": { "type": "MultiLineString", "coordinates": [ [ [ 963243.849999999976717, 1949277.33 ], [ 963246.51, 1949284.47 ] ] ] } },
{ "type": "Feature", "properties": { "uid": "11215#66", "sig_cd": 11215, "f_node": "11215#105", "t_node": "11215#496", "length": 45.956603013629604, "degree": 4.99, "width": 1.0, "type": 1, "ped_sig": 0 }, "geometry": { "type": "MultiLineString", "coordinates": [ [ [ 962548.25, 1949297.91 ], [ 962575.07999999995809, 1949335.2 ] ] ] } },
{ "type": "Feature", "properties": { "uid": "11215#67", "sig_cd": 11215, "f_node": "11215#15", "t_node": "11215#143", "length": 7.4712278980723896, "degree": 0.0, "width": 1.0, "type": 1, "ped_sig": 0 }, "geometry": { "type": "MultiLineString", "coordinates": [ [ [ 962825.24, 1948794.860000000102445 ], [ 962832.459999999962747, 1948792.95 ] ] ] } },
{ "type": "Feature", "properties": { "uid": "11215#60", "sig_cd": 11215, "f_node": "11215#43", "t_node": "11215#95", "length": 13.9436922589936, "degree": 0.0, "width": 1.0, "type": 1, "ped_sig": 0 }, "geometry": { "type": "MultiLineString", "coordinates": [ [ [ 962716.540000000037253, 1949462.94 ], [ 962730.430000000051223, 1949461.78 ] ] ] } }
]
}
